{
  "links" : {
    "next" : "https://api.nasa.gov/neo/rest/v1/feed?start_date=2006-02-16&end_date=2006-02-16&detailed=true&api_key=t0TVs3DtDT2H8Oy2Zy8m2eVrNsAVKAexjcZXUckd",
    "prev" : "https://api.nasa.gov/neo/rest/v1/feed?start_date=2006-02-14&end_date=2006-02-14&detailed=true&api_key=t0TVs3DtDT2H8Oy2Zy8m2eVrNsAVKAexjcZXUckd",
    "self" : "https://api.nasa.gov/neo/rest/v1/feed?start_date=2006-02-15&end_date=2006-02-15&detailed=true&api_key=t0TVs3DtDT2H8Oy2Zy8m2eVrNsAVKAexjcZXUckd"
  },
  "element_count" : 5,
  "near_earth_objects" : {
    "2006-02-15" : [ {
      "links" : {
        "self" : "https://api.nasa.gov/neo/rest/v1/neo/3402134?api_key=t0TVs3DtDT2H8Oy2Zy8m2eVrNsAVKAexjcZXUckd"
      },
      "neo_reference_id" : "3402134",
      "name" : "(2008 CL20)",
      "nasa_jpl_url" : "http://ssd.jpl.nasa.gov/sbdb.cgi?sstr=3402134",
      "absolute_magnitude_h" : 25.3,
      "estimated_diameter" : {
        "kilometers" : {
          "estimated_diameter_min" : 0.0231502122,
          "estimated_diameter_max" : 0.0517654482
        },
        "meters" : {
          "estimated_diameter_min" : 23.150212221,
          "estimated_diameter_max" : 51.7654482198
        },
        "miles" : {
          "estimated_diameter_min" : 0.0143848705,
          "estimated_diameter_max" : 0.0321655483
        },
        "feet" : {
          "estimated_diameter_min" : 75.9521422633,
          "estimated_diameter_max" : 169.8341531374
        }
      },
      "is_potentially_hazardous_asteroid" : false,
      "close_approach_data" : [ {
        "close_approach_date" : "2006-02-15",
        "epoch_date_close_approach" : 1139990400000,
        "relative_velocity" : {
          "kilometers_per_second" : "10.6393996998",
          "kilometers_per_hour" : "38301.8389192746",
          "miles_per_hour" : "23799.2731884793"
        },
        "miss_distance" : {
          "astronomical" : "0.0614269311",
          "lunar" : "23.8950767517",
          "kilometers" : "9189338",
          "miles" : "5709990"
        },
        "orbiting_body" : "Earth"
      } ],
      "orbital_data" : {
        "orbit_id" : "11",
        "orbit_determination_date" : "2017-04-06 09:04:29",
        "orbit_uncertainty" : "7",
        "minimum_orbit_intersection" : ".0174886",
        "jupiter_tisserand_invariant" : "7.484",
        "epoch_osculation" : "2458000.5",
        "eccentricity" : ".3187798659007469",
        "semi_major_axis" : ".7669379674818089",
        "inclination" : "15.96749826892515",
        "ascending_node_longitude" : "321.2516247497641",
        "orbital_period" : "245.323292150214",
        "perihelion_distance" : ".5224535850537665",
        "perihelion_argument" : "349.6954035178186",
        "aphelion_distance" : "1.011422349909851",
        "perihelion_time" : "2458049.810063718708",
        "mean_anomaly" : "287.6398796741025",
        "mean_motion" : "1.467451365276674",
        "equinox" : "J2000"
      }
    }, {
      "links" : {
        "self" : "https://api.nasa.gov/neo/rest/v1/neo/3423827?api_key=t0TVs3DtDT2H8Oy2Zy8m2eVrNsAVKAexjcZXUckd"
      },
      "neo_reference_id" : "3423827",
      "name" : "(2008 PR9)",
      "nasa_jpl_url" : "http://ssd.jpl.nasa.gov/sbdb.cgi?sstr=3423827",
      "absolute_magnitude_h" : 22.5,
      "estimated_diameter" : {
        "kilometers" : {
          "estimated_diameter_min" : 0.0840533402,
          "estimated_diameter_max" : 0.1879489824
        },
        "meters" : {
          "estimated_diameter_min" : 84.0533402073,
          "estimated_diameter_max" : 187.9489824394
        },
        "miles" : {
          "estimated_diameter_min" : 0.0522283081,
          "estimated_diameter_max" : 0.1167860472
        },
        "feet" : {
          "estimated_diameter_min" : 275.7655606856,
          "estimated_diameter_max" : 616.6305395464
        }
      },
      "is_potentially_hazardous_asteroid" : false,
      "close_approach_data" : [ {
        "close_approach_date" : "2006-02-15",
        "epoch_date_close_approach" : 1139990400000,
        "relative_velocity" : {
          "kilometers_per_second" : "16.5464010829",
          "kilometers_per_hour" : "59567.0438983298",
          "miles_per_hour" : "37012.6445822706"
        },
        "miss_distance" : {
          "astronomical" : "0.4524276693",
          "lunar" : "175.994354248",
          "kilometers" : "67682216",
          "miles" : "42055780"
        },
        "orbiting_body" : "Earth"
      } ],
      "orbital_data" : {
        "orbit_id" : "11",
        "orbit_determination_date" : "2017-04-06 09:03:05",
        "orbit_uncertainty" : "3",
        "minimum_orbit_intersection" : ".0220646",
        "jupiter_tisserand_invariant" : "6.247",
        "epoch_osculation" : "2458000.5",
        "eccentricity" : ".5117600827034207",
        "semi_major_axis" : ".9431810343654431",
        "inclination" : "3.304283490519959",
        "ascending_node_longitude" : "18.97758693305753",
        "orbital_period" : "334.5730965359427",
        "perihelion_distance" : ".4604986302142861",
        "perihelion_argument" : "75.41030964902562",
        "aphelion_distance" : "1.4258634385166",
        "perihelion_time" : "2458113.650042404269",
        "mean_anomaly" : "238.2507748313202",
        "mean_motion" : "1.075998051628535",
        "equinox" : "J2000"
      }
    } ]
  }
}